NORAD_CAT_ID,OBJECT_NAME,OBJECT_TYPE,EPOCH,MEAN_MOTION,ECCENTRICITY,INCLINATION,RA_OF_ASC_NODE,ARG_OF_PERICENTER,MEAN_ANOMALY,BSTAR,MEAN_MOTION_DOT,MEAN_MOTION_DDOT,TLE_LINE0,TLE_LINE1,TLE_LINE2,SEMIMAJOR_AXIS,PERIOD,APOGEE,PERIGEE,DECAYED
53540.0,STARLINK-4486,PAYLOAD,2024-02-14 19:56:01,15.07219342,0.0001337,53.2165,208.3866,96.538,263.5763,0.0001003,1.244e-05,0.0,0 STARLINK-4486,1 53540U 22101P   24045.83057488  .00001244  00000-0  10030-3 0  9999,2 53540  53.2165 208.3866 0001337  96.5380 263.5763 15.07219342 82498,6922.839,95.54,545.629,543.778,0.0
53540.0,STARLINK-4486,PAYLOAD,2024-02-15 03:53:29,15.07201733,0.0001507,53.2155,206.9002,87.9501,272.1663,9.4216e-05,1.151e-05,0.0,0 STARLINK-4486,1 53540U 22101P   24046.16214687  .00001151  00000-0  94216-4 0  9998,2 53540  53.2155 206.9002 0001507  87.9501 272.1663 15.07201733 82547,6922.892,95.541,545.801,543.714,0.0
53540.0,STARLINK-4486,PAYLOAD,2024-02-15 10:15:27,15.0720165,0.0001692,53.2155,205.7125,87.5396,272.579,7.5698e-05,8.69e-06,0.0,0 STARLINK-4486,1 53540U 22101P   24046.42739645  .00000869  00000-0  75698-4 0  9991,2 53540  53.2155 205.7125 0001692  87.5396 272.5790 15.07201650 83277,6922.893,95.541,545.929,543.586,0.0
53540.0,STARLINK-4486,PAYLOAD,2024-02-15 18:12:53,15.07202422,0.0001341,53.2155,204.2282,90.0415,270.073,8.0839e-05,9.47e-06,0.0,0 STARLINK-4486,1 53540U 22101P   24046.75895558  .00000947  00000-0  80839-4 0  9993,2 53540  53.2155 204.2282 0001341  90.0415 270.0730 15.07202422 83328,6922.89,95.541,545.684,543.827,0.0
53540.0,STARLINK-4486,PAYLOAD,2024-02-16 14:54:14,15.07211623,0.0001426,53.2157,200.3693,88.4291,271.6863,8.691e-05,1.04e-05,0.0,0 STARLINK-4486,1 53540U 22101P   24047.62100363  .00001040  00000-0  86910-4 0  9994,2 53540  53.2157 200.3693 0001426  88.4291 271.6863 15.07211623 83451,6922.862,95.541,545.714,543.74,0.0
53540.0,STARLINK-4486,PAYLOAD,2024-02-16 19:40:42,15.07220926,0.0001364,53.2161,199.4768,99.5103,260.6043,9.6436e-05,1.185e-05,0.0,0 STARLINK-4486,1 53540U 22101P   24047.81993174  .00001185  00000-0  96436-4 0  9999,2 53540  53.2161 199.4768 0001364  99.5103 260.6043 15.07220926 82793,6922.834,95.54,545.643,543.754,0.0
53540.0,STARLINK-4486,PAYLOAD,2024-02-17 03:38:09,15.07210496,0.0001327,53.2169,197.9885,113.6006,246.5125,3.1893e-05,2.02e-06,0.0,0 STARLINK-4486,1 53540U 22101P   24048.15149685  .00000202  00000-0  31893-4 0  9992,2 53540  53.2169 197.9885 0001327 113.6006 246.5125 15.07210496 82844,6922.866,95.541,545.649,543.812,0.0
53540.0,STARLINK-4486,PAYLOAD,2024-02-17 14:46:35,15.07200602,0.0001636,53.215,195.9128,100.993,259.1245,0.00010842,1.367e-05,0.0,0 STARLINK-4486,1 53540U 22101P   24048.61568828  .00001367  00000-0  10842-3 0  9990,2 53540  53.2150 195.9128 0001636 100.9930 259.1245 15.07200602 83606,6922.896,95.541,545.894,543.628,0.0
53540.0,STARLINK-4486,PAYLOAD,2024-02-17 19:33:03,15.07206151,0.0001602,53.2162,195.0231,97.768,262.3493,0.00010137,1.26e-05,0.0,0 STARLINK-4486,1 53540U 22101P   24048.81462238  .00001260  00000-0  10137-3 0  9999,2 53540  53.2162 195.0231 0001602  97.7680 262.3493 15.07206151 82945,6922.879,95.541,545.853,543.635,0.0
53540.0,STARLINK-4486,PAYLOAD,2024-02-18 14:38:55,15.07206536,0.0001568,53.2164,191.4584,103.9064,256.2102,0.00010625,1.334e-05,0.0,0 STARLINK-4486,1 53540U 22101P   24049.61036438  .00001334  00000-0  10625-3 0  9991,2 53540  53.2164 191.4584 0001568 103.9064 256.2102 15.07206536 83751,6922.878,95.541,545.828,543.657,0.0
53540.0,STARLINK-4486,PAYLOAD,2024-02-18 16:14:24,15.07212826,0.000142,53.2157,191.162,89.2541,270.8613,0.00014149,1.871e-05,0.0,0 STARLINK-4486,1 53540U 22101P   24049.67667352  .00001871  00000-0  14149-3 0  9993,2 53540  53.2157 191.1620 0001420  89.2541 270.8613 15.07212826 83763,6922.858,95.541,545.707,543.74,0.0
53540.0,STARLINK-4486,PAYLOAD,2024-02-19 01:47:20,15.07208443,0.0001183,53.2148,189.3804,84.7763,275.3364,1.5784e-05,-4.3e-07,0.0,0 STARLINK-4486,1 53540U 22101P   24050.07454572 -.00000043  00000-0  15784-4 0  9995,2 53540  53.2148 189.3804 0001183  84.7763 275.3364 15.07208443 83132,6922.872,95.541,545.556,543.918,0.0
53540.0,STARLINK-4486,PAYLOAD,2024-02-19 09:44:48,15.07198192,0.0001405,53.217,187.8997,87.7375,272.3778,8.5912e-05,1.024e-05,0.0,0 STARLINK-4486,1 53540U 22101P   24050.40611286  .00001024  00000-0  85912-4 0  9998,2 53540  53.2170 187.8997 0001405  87.7375 272.3778 15.07198192 83182,6922.903,95.542,545.741,543.796,0.0
53540.0,STARLINK-4486,PAYLOAD,2024-02-19 14:31:16,15.07199566,0.0001398,53.2168,187.01,86.7809,273.3342,7.7258e-05,8.93e-06,0.0,0 STARLINK-4486,1 53540U 22101P   24050.60504855  .00000893  00000-0  77258-4 0  9990,2 53540  53.2168 187.0100 0001398  86.7809 273.3342 15.07199566 83903,6922.899,95.541,545.732,543.796,0.0
53540.0,STARLINK-4486,PAYLOAD,2024-02-19 16:06:45,15.07203768,0.0001498,53.217,186.7108,101.7073,258.4087,0.00013042,1.702e-05,0.0,0 STARLINK-4486,1 53540U 22101P   24050.67136076  .00001702  00000-0  13042-3 0  9993,2 53540  53.2170 186.7108 0001498 101.7073 258.4087 15.07203768 83913,6922.886,95.541,545.788,543.714,0.0
53540.0,STARLINK-4486,PAYLOAD,2024-02-20 14:23:36,15.07204571,0.0001473,53.2183,182.5569,104.961,255.1545,-1.4755e-05,-5.08e-06,0.0,0 STARLINK-4486,1 53540U 22101P   24051.59973110 -.00000508  00000-0 -14755-4 0  9991,2 53540  53.2183 182.5569 0001473 104.9610 255.1545 15.07204571 84059,6922.884,95.541,545.769,543.729,0.0
53540.0,STARLINK-4486,PAYLOAD,2024-02-20 15:59:06,15.07203987,0.0001456,53.2182,182.2597,102.9854,257.13,-1.3078e-06,-3.03e-06,0.0,0 STARLINK-4486,1 53540U 22101P   24051.66604304 -.00000303  00000-0 -13078-5 0  9996,2 53540  53.2182 182.2597 0001456 102.9854 257.1300 15.07203987 83370,6922.886,95.541,545.759,543.743,0.0
53540.0,STARLINK-4486,PAYLOAD,2024-02-21 14:15:56,15.07207974,0.0001424,53.2178,178.1013,96.6219,263.4934,0.0001367,1.798e-05,0.0,0 STARLINK-4486,1 53540U 22101P   24052.59440553  .00001798  00000-0  13670-3 0  9996,2 53540  53.2178 178.1013 0001424  96.6219 263.4934 15.07207974 84207,6922.873,95.541,545.724,543.753,0.0
53540.0,STARLINK-4486,PAYLOAD,2024-02-21 15:51:25,15.07210344,0.0001352,53.2174,177.804,93.4386,266.676,0.00016189,2.182e-05,0.0,0 STARLINK-4486,1 53540U 22101P   24052.66071572  .00002182  00000-0  16189-3 0  9991,2 53540  53.2174 177.8040 0001352  93.4386 266.6760 15.07210344 83520,6922.866,95.541,545.667,543.795,0.0
53540.0,STARLINK-4486,PAYLOAD,2024-02-22 14:08:16,15.07210853,0.0001281,53.217,173.6449,88.8107,271.3031,0.00011821,1.517e-05,0.0,0 STARLINK-4486,1 53540U 22101P   24053.58908322  .00001517  00000-0  11821-3 0  9994,2 53540  53.2170 173.6449 0001281  88.8107 271.3031 15.07210853 84354,6922.865,95.541,545.616,543.843,0.0
53540.0,STARLINK-4486,PAYLOAD,2024-02-22 15:43:45,15.07212764,0.0001281,53.2171,173.348,87.3473,272.7665,0.00013342,1.749e-05,0.0,0 STARLINK-4486,1 53540U 22101P   24053.65539350  .00001749  00000-0  13342-3 0  9990,2 53540  53.2171 173.3480 0001281  87.3473 272.7665 15.07212764 84369,6922.859,95.541,545.61,543.837,0.0
53540.0,STARLINK-4486,PAYLOAD,2024-02-23 12:25:08,15.07205378,0.0001792,53.2184,169.4893,66.7781,293.3399,1.8158e-05,-7e-08,0.0,0 STARLINK-4486,1 53540U 22101P   24054.51745760 -.00000007  00000-0  18158-4 0  9998,2 53540  53.2184 169.4893 0001792  66.7781 293.3399 15.07205378 83801,6922.881,95.541,545.987,543.506,0.0
53540.0,STARLINK-4486,PAYLOAD,2024-02-23 14:00:37,15.07207038,0.0001509,53.2185,169.1907,74.9651,285.1508,1.7535e-05,-1.6e-07,0.0,0 STARLINK-4486,1 53540U 22101P   24054.58376744 -.00000016  00000-0  17535-4 0  9995,2 53540  53.2185 169.1907 0001509  74.9651 285.1508 15.07207038 84502,6922.876,95.541,545.786,543.697,0.0
53540.0,STARLINK-4486,PAYLOAD,2024-02-23 17:11:35,15.07213201,0.0001474,53.2173,168.5952,83.2447,276.8713,5.3789e-05,5.36e-06,0.0,0 STARLINK-4486,1 53540U 22101P   24054.71638536  .00000536  00000-0  53789-4 0  9997,2 53540  53.2173 168.5952 0001474  83.2447 276.8713 15.07213201 83838,6922.857,95.541,545.743,543.702,0.0
53540.0,STARLINK-4486,PAYLOAD,2024-02-24 13:52:56,15.07219771,0.0001362,53.217,164.7365,90.9971,269.1176,9.57e-05,1.174e-05,0.0,0 STARLINK-4486,1 53540U 22101P   24055.57843373  .00001174  00000-0  95700-4 0  9997,2 53540  53.2170 164.7365 0001362  90.9971 269.1176 15.07219771 84651,6922.837,95.54,545.645,543.759,0.0
53540.0,STARLINK-4486,PAYLOAD,2024-02-25 12:09:48,15.0721056,0.0001492,53.2175,160.5823,94.9147,265.2015,5.0312e-05,4.83e-06,0.0,0 STARLINK-4486,1 53540U 22101P   24056.50680732  .00000483  00000-0  50312-4 0  9991,2 53540  53.2175 160.5823 0001492  94.9147 265.2015 15.07210560 84108,6922.865,95.541,545.763,543.698,0.0
53540.0,STARLINK-4486,PAYLOAD,2024-02-25 13:45:17,15.07211774,0.0001452,53.217,160.2807,98.4733,261.6423,0.00012966,1.691e-05,0.0,0 STARLINK-4486,1 53540U 22101P   24056.57311587  .00001691  00000-0  12966-3 0  9991,2 53540  53.2170 160.2807 0001452  98.4733 261.6423 15.07211774 84806,6922.862,95.541,545.732,543.722,0.0
53540.0,STARLINK-4486,PAYLOAD,2024-02-26 12:02:09,15.07200269,0.0001343,53.2165,156.1254,90.0494,270.0651,-6.1169e-05,-1.214e-05,0.0,0 STARLINK-4486,1 53540U 22101P   24057.50149689 -.00001214  00000-0 -61169-4 0  9990,2 53540  53.2165 156.1254 0001343  90.0494 270.0651 15.07200269 84254,6922.897,95.541,545.692,543.832,0.0
53540.0,STARLINK-4486,PAYLOAD,2024-02-26 15:13:07,15.07202143,0.0001345,53.2168,155.5316,89.2305,270.884,-4.4177e-05,-9.56e-06,0.0,0 STARLINK-4486,1 53540U 22101P   24057.63411936 -.00000956  00000-0 -44177-4 0  9993,2 53540  53.2168 155.5316 0001345  89.2305 270.8840 15.07202143 84961,6922.891,95.541,545.687,543.825,0.0
53540.0,STARLINK-4486,PAYLOAD,2024-02-27 11:54:28,15.07209938,0.0001508,53.2177,151.6726,99.1204,260.9958,9.9115e-05,1.226e-05,0.0,0 STARLINK-4486,1 53540U 22101P   24058.49616836  .00001226  00000-0  99115-4 0  9995,2 53540  53.2177 151.6726 0001508  99.1204 260.9958 15.07209938 84400,6922.867,95.541,545.776,543.688,0.0
